IRIDIUM 106             
1 41917U 17003A   25243.97474838  .00000010  00000+0 -35204-5 0  9999
2 41917  86.3993 209.3327 0002536  92.1745 267.9741 14.34217819451750
IRIDIUM 103             
1 41918U 17003B   25243.96206153  .00000098  00000+0  27916-4 0  9997
2 41918  86.3991 209.2384 0001924  99.0761 261.0653 14.34218244451777
IRIDIUM 109             
1 41919U 17003C   25244.17771071  .00000056  00000+0  12993-4 0  9991
2 41919  86.3993 209.2030 0002096  86.5649 273.5787 14.34217980451777
IRIDIUM 102             
1 41920U 17003D   25244.28553424 -.00000012  00000+0 -11192-4 0  9999
2 41920  86.3994 209.0882 0002078  82.4025 277.7407 14.34217585451873
IRIDIUM 105             
1 41921U 17003E   25244.25627377  .00000515  00000+0  17691-3 0  9991
2 41921  86.4044 177.6055 0002134  87.6969 272.4471 14.34219684453721
IRIDIUM 104             
1 41922U 17003F   25244.15867238  .00000088  00000+0  24302-4 0  9996
2 41922  86.3993 209.1791 0001860  86.8855 273.2553 14.34217178451849
IRIDIUM 114             
1 41923U 17003G   25244.16502494  .00000471  00000+0  16126-3 0  9998
2 41923  86.3990 209.1604 0002193  91.8408 268.3039 14.34219096451823
IRIDIUM 108             
1 41924U 17003H   25244.26308465 -.00000049  00000+0 -24666-4 0  9994
2 41924  86.4040 177.4994 0002294  81.9607 278.1849 14.34217235453691
